{
  "type": "FeatureCollection",
  "features": [
    {
      "type": "Feature",
      "properties": {
        "norad_id": 30674,
        "name": "FENGYUN 1C DEB",
        "group": "fengyun-1c-debris",
        "lat": -48.06141288135735,
        "lon": 168.28202923122686,
        "alt_km": 568.6424862538533,
        "timestamp": "2025-12-20T07:33:51.090910+00:00",
        "meta_object_name": "FENGYUN 1C DEB",
        "meta_object_id": "1999-025AQG",
        "meta_epoch": "2025-12-19T10:55:22.251360",
        "meta_mean_motion": 14.96636685,
        "meta_eccentricity": 0.0025542,
        "meta_inclination": 98.9378,
        "meta_ra_of_asc_node": 157.2122,
        "meta_arg_of_pericenter": 282.83,
        "meta_mean_anomaly": 77.0064,
        "meta_ephemeris_type": 0,
        "meta_classification_type": "U",
        "meta_norad_cat_id": 30674,
        "meta_element_set_no": 999,
        "meta_rev_at_epoch": 97452,
        "meta_bstar": 0.0045529,
        "meta_mean_motion_dot": 0.00052542,
        "meta_mean_motion_ddot": 0,
        "tle_line1": "1 30674U 99025AQG 25353.45511865  .00052542  00000+0  45529-2 0  9992",
        "tle_line2": "2 30674  98.9378 157.2122 0025542 282.8300  77.0064 14.96636685974522"
      },
      "geometry": {
        "type": "Point",
        "coordinates": [
          168.28202923122686,
          -48.06141288135735
        ]
      }
    },
    {
      "type": "Feature",
      "properties": {
        "norad_id": 30675,
        "name": "FENGYUN 1C DEB",
        "group": "fengyun-1c-debris",
        "lat": -53.485609979783575,
        "lon": 85.46650378326345,
        "alt_km": 843.0983043638171,
        "timestamp": "2025-12-20T07:33:51.090919+00:00",
        "meta_object_name": "FENGYUN 1C DEB",
        "meta_object_id": "1999-025AQH",
        "meta_epoch": "2025-12-18T17:44:29.420160",
        "meta_mean_motion": 14.27448931,
        "meta_eccentricity": 0.00539376,
        "meta_inclination": 98.755,
        "meta_ra_of_asc_node": 71.8746,
        "meta_arg_of_pericenter": 152.1478,
        "meta_mean_anomaly": 339.3545,
        "meta_ephemeris_type": 0,
        "meta_classification_type": "U",
        "meta_norad_cat_id": 30675,
        "meta_element_set_no": 999,
        "meta_rev_at_epoch": 96977,
        "meta_bstar": 0.0012412064,
        "meta_mean_motion_dot": 3.05e-05,
        "meta_mean_motion_ddot": 0,
        "tle_line1": "1 30675U 99025AQH 25352.73922940  .00003050  00000+0  12412-2 0  9998",
        "tle_line2": "2 30675  98.7550  71.8746 0053937 152.1478 339.3545 14.27448931969778"
      },
      "geometry": {
        "type": "Point",
        "coordinates": [
          85.46650378326345,
          -53.485609979783575
        ]
      }
    },
    {
      "type": "Feature",
      "properties": {
        "norad_id": 30676,
        "name": "FENGYUN 1C DEB",
        "group": "fengyun-1c-debris",
        "lat": -58.11246689984657,
        "lon": -14.286617774271553,
        "alt_km": 1285.2333363145572,
        "timestamp": "2025-12-20T07:33:51.090930+00:00",
        "meta_object_name": "FENGYUN 1C DEB",
        "meta_object_id": "1999-025AQJ",
        "meta_epoch": "2025-12-19T11:10:38.862048",
        "meta_mean_motion": 13.73928745,
        "meta_eccentricity": 0.0472125,
        "meta_inclination": 98.2658,
        "meta_ra_of_asc_node": 178.4873,
        "meta_arg_of_pericenter": 30.0838,
        "meta_mean_anomaly": 332.6558,
        "meta_ephemeris_type": 0,
        "meta_classification_type": "U",
        "meta_norad_cat_id": 30676,
        "meta_element_set_no": 999,
        "meta_rev_at_epoch": 94016,
        "meta_bstar": 0.00050108,
        "meta_mean_motion_dot": 1.02e-05,
        "meta_mean_motion_ddot": 0,
        "tle_line1": "1 30676U 99025AQJ 25353.46572757  .00001020  00000+0  50108-3 0  9997",
        "tle_line2": "2 30676  98.2658 178.4873 0472125  30.0838 332.6558 13.73928745940164"
      },
      "geometry": {
        "type": "Point",
        "coordinates": [
          -14.286617774271553,
          -58.11246689984657
        ]
      }
    },
    {
      "type": "Feature",
      "properties": {
        "norad_id": 30677,
        "name": "FENGYUN 1C DEB",
        "group": "fengyun-1c-debris",
        "lat": -61.68380697327372,
        "lon": -156.5059143182486,
        "alt_km": 748.5604667868383,
        "timestamp": "2025-12-20T07:33:51.090939+00:00",
        "meta_object_name": "FENGYUN 1C DEB",
        "meta_object_id": "1999-025AQK",
        "meta_epoch": "2025-12-19T02:21:12.199968",
        "meta_mean_motion": 14.38188451,
        "meta_eccentricity": 0.00665025,
        "meta_inclination": 98.2537,
        "meta_ra_of_asc_node": 37.9527,
        "meta_arg_of_pericenter": 185.1284,
        "meta_mean_anomaly": 239.0133,
        "meta_ephemeris_type": 0,
        "meta_classification_type": "U",
        "meta_norad_cat_id": 30677,
        "meta_element_set_no": 999,
        "meta_rev_at_epoch": 98071,
        "meta_bstar": 0.00087024533,
        "meta_mean_motion_dot": 2.669e-05,
        "meta_mean_motion_ddot": 0,
        "tle_line1": "1 30677U 99025AQK 25353.09805787  .00002669  00000+0  87025-3 0  9997",
        "tle_line2": "2 30677  98.2537  37.9527 0066502 185.1284 239.0133 14.38188451980719"
      },
      "geometry": {
        "type": "Point",
        "coordinates": [
          -156.5059143182486,
          -61.68380697327372
        ]
      }
    },
    {
      "type": "Feature",
      "properties": {
        "norad_id": 30678,
        "name": "FENGYUN 1C DEB",
        "group": "fengyun-1c-debris",
        "lat": 68.06279139822524,
        "lon": -68.06776040388033,
        "alt_km": 842.5545983566826,
        "timestamp": "2025-12-20T07:33:51.090949+00:00",
        "meta_object_name": "FENGYUN 1C DEB",
        "meta_object_id": "1999-025AQL",
        "meta_epoch": "2025-12-19T09:54:33.676992",
        "meta_mean_motion": 14.24247135,
        "meta_eccentricity": 0.0071238,
        "meta_inclination": 99.0794,
        "meta_ra_of_asc_node": 314.3935,
        "meta_arg_of_pericenter": 211.1049,
        "meta_mean_anomaly": 275.72,
        "meta_ephemeris_type": 0,
        "meta_classification_type": "U",
        "meta_norad_cat_id": 30678,
        "meta_element_set_no": 999,
        "meta_rev_at_epoch": 95970,
        "meta_bstar": 0.0020104,
        "meta_mean_motion_dot": 4.717e-05,
        "meta_mean_motion_ddot": 0,
        "tle_line1": "1 30678U 99025AQL 25353.41288978  .00004717  00000+0  20104-2 0  9991",
        "tle_line2": "2 30678  99.0794 314.3935 0071238 211.1049 275.7200 14.24247135959707"
      },
      "geometry": {
        "type": "Point",
        "coordinates": [
          -68.06776040388033,
          68.06279139822524
        ]
      }
    },
    {
      "type": "Feature",
      "properties": {
        "norad_id": 30679,
        "name": "FENGYUN 1C DEB",
        "group": "fengyun-1c-debris",
        "lat": 59.53054084377104,
        "lon": 29.679974591636213,
        "alt_km": 833.2557671375343,
        "timestamp": "2025-12-20T07:33:51.090960+00:00",
        "meta_object_name": "FENGYUN 1C DEB",
        "meta_object_id": "1999-025AQM",
        "meta_epoch": "2025-12-18T22:48:12.178080",
        "meta_mean_motion": 13.79723801,
        "meta_eccentricity": 0.01713589,
        "meta_inclination": 99.3808,
        "meta_ra_of_asc_node": 44.6456,
        "meta_arg_of_pericenter": 62.4313,
        "meta_mean_anomaly": 61.8977,
        "meta_ephemeris_type": 0,
        "meta_classification_type": "U",
        "meta_norad_cat_id": 30679,
        "meta_element_set_no": 999,
        "meta_rev_at_epoch": 94605,
        "meta_bstar": 0.00054346494,
        "meta_mean_motion_dot": 5.84e-06,
        "meta_mean_motion_ddot": 0,
        "tle_line1": "1 30679U 99025AQM 25352.95014095  .00000584  00000+0  54346-3 0  9991",
        "tle_line2": "2 30679  99.3808  44.6456 0171358  62.4313  61.8977 13.79723801946050"
      },
      "geometry": {
        "type": "Point",
        "coordinates": [
          29.679974591636213,
          59.53054084377104
        ]
      }
    },
    {
      "type": "Feature",
      "properties": {
        "norad_id": 30680,
        "name": "FENGYUN 1C DEB",
        "group": "fengyun-1c-debris",
        "lat": -0.6483354432016588,
        "lon": 36.880999785135316,
        "alt_km": 1266.8018862989893,
        "timestamp": "2025-12-20T07:33:51.090970+00:00",
        "meta_object_name": "FENGYUN 1C DEB",
        "meta_object_id": "1999-025AQN",
        "meta_epoch": "2025-12-19T20:56:37.181184",
        "meta_mean_motion": 13.56167108,
        "meta_eccentricity": 0.03379274,
        "meta_inclination": 99.6297,
        "meta_ra_of_asc_node": 36.3378,
        "meta_arg_of_pericenter": 150.1589,
        "meta_mean_anomaly": 211.9298,
        "meta_ephemeris_type": 0,
        "meta_classification_type": "U",
        "meta_norad_cat_id": 30680,
        "meta_element_set_no": 999,
        "meta_rev_at_epoch": 92350,
        "meta_bstar": 0.0031957022,
        "meta_mean_motion_dot": 3.199e-05,
        "meta_mean_motion_ddot": 0,
        "tle_line1": "1 30680U 99025AQN 25353.87265256  .00003199  00000+0  31957-2 0  9999",
        "tle_line2": "2 30680  99.6297  36.3378 0337927 150.1589 211.9298 13.56167108923500"
      },
      "geometry": {
        "type": "Point",
        "coordinates": [
          36.880999785135316,
          -0.6483354432016588
        ]
      }
    }
  ]
}